#aP2002  1 10  0  0  0.00000000      96 ORBIT IGS00 HLM  IGS
## 1148 345600.00000000   900.00000000 52284 0.0000000000000
+   28     1  2  3  4  5  6  7  8  9 10 11 13 14 15 17 18 20
+         21 22 23 24 25 26 27 28 29 30 31  0  0  0  0  0  0
+          0  0  0  0  0  0  0  0  0  0  0  0  0  0  0  0  0
+          0  0  0  0  0  0  0  0  0  0  0  0  0  0  0  0  0
+          0  0  0  0  0  0  0  0  0  0  0  0  0  0  0  0  0
++         5  4  4  4  4  4  4  4  4  4  4  5  5  4  4  5  4
++         5  4  4  6  4  4  4  5  5  4  4  0  0  0  0  0  0
++         0  0  0  0  0  0  0  0  0  0  0  0  0  0  0  0  0
++         0  0  0  0  0  0  0  0  0  0  0  0  0  0  0  0  0
++         0  0  0  0  0  0  0  0  0  0  0  0  0  0  0  0  0
%c cc cc ccc ccc cccc cccc cccc cccc ccccc ccccc ccccc ccccc
%c cc cc ccc ccc cccc cccc cccc cccc ccccc ccccc ccccc ccccc
%f  0.0000000  0.000000000  0.00000000000  0.000000000000000
%f  0.0000000  0.000000000  0.00000000000  0.000000000000000
%i    0    0    0    0      0      0      0      0         0
%i    0    0    0    0      0      0      0      0         0
/* FINAL ORBIT COMBINATION FROM WEIGHTED AVERAGE OF:        
/* cod emr esa gfz jpl ngs sio                              
/* REFERENCED TO GPS CLOCK AND TO WEIGHTED MEAN POLE:       
/* CLK ANT Z-OFFSET (M): II/IIA 1.023; IIR 0.000            
*  2002  1 10  0  0  0.00000000
P  1  22137.657683   2318.107830  14690.041108    210.877168
P  2  15508.968825     50.026921 -20863.907796   -134.287532
P  3    469.375770  16668.690218 -20701.371428     99.452209
P  4   5550.342312 -14490.842478  21591.913573    303.080911
P  5 -13236.629099 -12718.180759  19185.583778    332.238203
P  6 -25120.165847   3991.749264   8151.858381     -2.197382
P  7  17234.573883 -16776.443721  11375.167669    678.238737
P  8  13615.932091  -8308.541413 -21498.354543    667.303169
P  9 -22025.010964 -15195.264752   1104.342288    -25.197267
P 10  -2493.116582 -24828.618995  -8767.867394     16.793155
P 11  22621.228904  13802.642266   1814.998369      7.061450
P 13  25181.131004  -6856.946694   4667.618022     -1.143893
P 14 -17570.752382  16123.397283  11825.439220   -110.969962
P 15 -15677.844816   5045.720277 -21107.563880    126.646885
P 17 -19349.565937  -1585.623171 -18387.434683   -222.965551
P 18 -15514.753374   9184.600120 -19477.405449    -75.594468
P 20  13656.882842   8511.658727  21069.116313   -128.731925
P 21 -10750.782276  20877.582045 -11371.824754      4.938744
P 22     77.479827  26184.365428  -2462.755839    561.124284
P 23 -13143.277799  -7342.243597 -21399.383366      4.314462
P 24  -7115.319586 -20107.589171  16130.067133      1.254770
P 25   -866.599826  17391.578954  20382.868927     21.591268
P 26 -13379.142401 -10032.318279 -20903.006734    -30.360675
P 27  21338.453255    976.256203 -15848.158721      7.518710
P 28  12361.841092 -18807.274850 -13813.659086    -54.207405
P 29 -13272.766329  17314.127228  15270.392661    566.071244
P 30 -15641.919128   1044.003333  21236.404652    320.885603
P 31  13741.630726  10230.004465 -20643.903679     85.957117
*  2002  1 10  0 15  0.00000000
P  1  20573.620497   3151.610131  16691.442184 999999.999999
P  2  15460.677794   2587.078049 -20781.098300   -134.292236
P  3  -1645.754116  17627.223249 -19815.381331     99.455459
P  4   7542.524792 -13021.441396  21945.432872    303.053502
P  5 -12990.051223 -14840.173438  17797.070937    332.238773
P  6 -24268.151711   3320.417472  10676.507595     -2.199324
P  7  18363.212414 -17022.284038   8872.865096    678.250556
P  8  15457.562526  -6820.617482 -20773.828497    667.307210
P  9 -21873.519269 -15412.896260  -1695.980875    -25.198698
P 10  -2198.425723 -25651.392484  -6031.808803     16.792923
P 11  22461.051979  14141.489401   -955.427752      7.061520
P 13  24638.423098  -6370.801433   7437.943025     -1.144243
P 14 -18748.244869  16434.835062   9321.165835   -110.967482
P 15 -17395.647568   3519.861720 -20038.568529    126.651176
P 17 -20758.394799  -2984.055260 -16652.092222   -222.848728
P 18 -15270.323159   6902.672603 -20592.137058    -75.594396
P 20  13341.355061  10862.841591  20169.749945   -128.734830
P 21 -10797.054785  19346.962810 -13761.485334      4.939901
P 22   -304.131765  26258.166965    361.143046    561.142452
P 23 -12711.637320  -9811.767734 -20689.040893      4.314744
P 24  -5555.236827 -19024.886026  17983.887885      1.257859
P 25  -2877.033010  16228.237631  21140.820630     21.590324
P 26 -11204.330077 -11028.731280 -21618.219880    -30.368949
P 27  22678.460414   2087.495247 -13843.599288      7.520339
P 28  12388.399595 -17069.010364 -15894.624908    -54.210647
P 29 -14786.184942  17834.413419  13076.754226    566.061132
P 30 -15464.860990  -1435.082111  21348.105923    320.933051
P 31  11660.379642  11313.211213 -21326.822815     85.959475